{
  "norad_id": 61574,
  "name": "STARLINK-11356 [DTC]",
  "history": [
    {
      "epoch": "2026-05-06T20:13:56.038080Z",
      "apogee_km": 360.078829113565,
      "perigee_km": 359.413126275369,
      "latitude_deg": -2.3100904748420283e-05,
      "longitude_deg": -158.5792406882383,
      "height_km": 360.42199850705737,
      "semi_major_axis_km": 6737.882977694467,
      "eccentricity": 4.94e-05,
      "inclination_deg": 53.1576,
      "raan_deg": 9.6021,
      "arg_perigee_deg": 44.2659,
      "mean_anomaly_deg": 315.8398,
      "mean_motion_rev_day": 15.69703281
    },
    {
      "epoch": "2026-05-07T19:09:10.713024Z",
      "apogee_km": 360.06466818136414,
      "perigee_km": 359.3302442256372,
      "latitude_deg": -8.772420375124679e-06,
      "longitude_deg": -148.0411004386049,
      "height_km": 360.2541263332326,
      "semi_major_axis_km": 6737.8344562035,
      "eccentricity": 5.45e-05,
      "inclination_deg": 53.1581,
      "raan_deg": 4.8927,
      "arg_perigee_deg": 347.3742,
      "mean_anomaly_deg": 12.7262,
      "mean_motion_rev_day": 15.69720237
    },
    {
      "epoch": "2026-05-08T21:07:47.515584Z",
      "apogee_km": 360.0873768167776,
      "perigee_km": 359.2855758230944,
      "latitude_deg": -1.8214435893137396e-05,
      "longitude_deg": 175.90571239985164,
      "height_km": 360.239537329024,
      "semi_major_axis_km": 6737.823476319935,
      "eccentricity": 5.95e-05,
      "inclination_deg": 53.1586,
      "raan_deg": 359.5597,
      "arg_perigee_deg": 25.6,
      "mean_anomaly_deg": 334.5047,
      "mean_motion_rev_day": 15.69724074
    },
    {
      "epoch": "2026-05-09T20:03:03.985056Z",
      "apogee_km": 360.1624723247114,
      "perigee_km": 359.3673998962495,
      "latitude_deg": 3.954474104505604e-06,
      "longitude_deg": -173.56223780542908,
      "height_km": 360.3155640025965,
      "semi_major_axis_km": 6737.90193611048,
      "eccentricity": 5.9e-05,
      "inclination_deg": 53.1581,
      "raan_deg": 354.8517,
      "arg_perigee_deg": 23.7268,
      "mean_anomaly_deg": 336.3777,
      "mean_motion_rev_day": 15.69696656
    },
    {
      "epoch": "2026-05-10T20:29:59.670240Z",
      "apogee_km": 359.7975981220452,
      "perigee_km": 359.62645675674776,
      "latitude_deg": -1.3783736137465958e-05,
      "longitude_deg": 173.67814959430416,
      "height_km": 360.61146197448363,
      "semi_major_axis_km": 6737.849027439396,
      "eccentricity": 1.27e-05,
      "inclination_deg": 53.1588,
      "raan_deg": 349.8282,
      "arg_perigee_deg": 79.6701,
      "mean_anomaly_deg": 280.4331,
      "mean_motion_rev_day": 15.69715145
    },
    {
      "epoch": "2026-05-11T20:56:56.617728Z",
      "apogee_km": 360.02215727216935,
      "perigee_km": 359.42653032937596,
      "latitude_deg": 5.003889267209073e-05,
      "longitude_deg": 160.91512469871617,
      "height_km": 360.6596432515727,
      "semi_major_axis_km": 6737.861343800772,
      "eccentricity": 4.42e-05,
      "inclination_deg": 53.1583,
      "raan_deg": 344.8065,
      "arg_perigee_deg": 94.039,
      "mean_anomaly_deg": 266.0679,
      "mean_motion_rev_day": 15.69710841
    },
    {
      "epoch": "2026-05-12T19:52:11.913024Z",
      "apogee_km": 360.0120362276639,
      "perigee_km": 359.42449524849144,
      "latitude_deg": 3.2086839503637394e-05,
      "longitude_deg": 171.45215278914907,
      "height_km": 360.60655166451346,
      "semi_major_axis_km": 6737.855265738078,
      "eccentricity": 4.36e-05,
      "inclination_deg": 53.1577,
      "raan_deg": 340.0986,
      "arg_perigee_deg": 84.9256,
      "mean_anomaly_deg": 275.1812,
      "mean_motion_rev_day": 15.69712965
    },
    {
      "epoch": "2026-05-13T06:33:59.433120Z",
      "apogee_km": 360.05986956191555,
      "perigee_km": 359.41572873111727,
      "latitude_deg": -1.05484229612906e-05,
      "longitude_deg": 8.366529876248544,
      "height_km": 360.57814151305786,
      "semi_major_axis_km": 6737.874799146516,
      "eccentricity": 4.78e-05,
      "inclination_deg": 53.1574,
      "raan_deg": 337.9003,
      "arg_perigee_deg": 76.7425,
      "mean_anomaly_deg": 283.3646,
      "mean_motion_rev_day": 15.69706139
    },
    {
      "epoch": "2026-05-13T06:33:59.433984Z",
      "apogee_km": 360.05980218316745,
      "perigee_km": 359.41579610986537,
      "latitude_deg": -9.650518017481411e-06,
      "longitude_deg": 8.366526935374482,
      "height_km": 360.5781569645905,
      "semi_major_axis_km": 6737.874799146516,
      "eccentricity": 4.779e-05,
      "inclination_deg": 53.1574,
      "raan_deg": 337.9003,
      "arg_perigee_deg": 76.7425,
      "mean_anomaly_deg": 283.3646,
      "mean_motion_rev_day": 15.69706139
    },
    {
      "epoch": "2026-05-14T22:17:45.774528Z",
      "apogee_km": 360.04267930840524,
      "perigee_km": 359.37401553612744,
      "latitude_deg": 9.197565614702348e-06,
      "longitude_deg": 122.63152185092636,
      "height_km": 360.51895525023525,
      "semi_major_axis_km": 6737.845347422266,
      "eccentricity": 4.962e-05,
      "inclination_deg": 53.1589,
      "raan_deg": 329.74,
      "arg_perigee_deg": 71.9211,
      "mean_anomaly_deg": 288.1861,
      "mean_motion_rev_day": 15.69716431
    },
    {
      "epoch": "2026-05-16T18:36:34.972128Z",
      "apogee_km": 360.0803858721265,
      "perigee_km": 359.3176628341698,
      "latitude_deg": -4.4594371112727626e-05,
      "longitude_deg": 167.00469179504447,
      "height_km": 360.43964174744104,
      "semi_major_axis_km": 6737.836024353148,
      "eccentricity": 5.66e-05,
      "inclination_deg": 53.1585,
      "raan_deg": 320.6381,
      "arg_perigee_deg": 62.91,
      "mean_anomaly_deg": 297.1975,
      "mean_motion_rev_day": 15.69719689
    }
  ]
}